COSMOS 2503             
1 40420U 15009A   26068.69626972  .00002817  00000+0  19590-3 0  9998
2 40420  97.8437 123.7175 0015321 225.7450 134.2520 15.06275973603958
STARLINK-30510          
1 57981U 23151T   26067.79743887  .00000089  00000+0  21665-4 0  9996
2 57981  43.0060 356.8477 0001276 250.8138 109.2566 15.02539259135445
